{
  "type": "FeatureCollection",
  "features": [
    {
      "type": "Feature",
      "properties": {
        "norad_id": 58701,
        "name": "TIANMU-1 16",
        "group": "weather",
        "lat": 45.56050006315462,
        "lon": 4.279934966441952,
        "alt_km": 489.82042531775915,
        "timestamp": "2025-12-21T18:54:58.136274+00:00",
        "meta_object_name": "TIANMU-1 16",
        "meta_object_id": "2024-004B",
        "meta_epoch": "2025-12-21T15:10:48.227232",
        "meta_mean_motion": 15.24541993,
        "meta_eccentricity": 0.0004341,
        "meta_inclination": 97.4561,
        "meta_ra_of_asc_node": 176.4501,
        "meta_arg_of_pericenter": 255.5511,
        "meta_mean_anomaly": 104.5245,
        "meta_ephemeris_type": 0,
        "meta_classification_type": "U",
        "meta_norad_cat_id": 58701,
        "meta_element_set_no": 999,
        "meta_rev_at_epoch": 10870,
        "meta_bstar": 0.0002231654,
        "meta_mean_motion_dot": 5.422e-05,
        "meta_mean_motion_ddot": 0,
        "tle_line1": "1 58701U 24004B   25355.63250263  .00005422  00000+0  22317-3 0  9998",
        "tle_line2": "2 58701  97.4561 176.4501 0004341 255.5511 104.5245 15.24541993108705"
      },
      "geometry": {
        "type": "Point",
        "coordinates": [
          4.279934966441952,
          45.56050006315462
        ]
      }
    },
    {
      "type": "Feature",
      "properties": {
        "norad_id": 58702,
        "name": "TIANMU-1 17",
        "group": "weather",
        "lat": -39.49750685814964,
        "lon": -9.18039347159245,
        "alt_km": 496.6544665268466,
        "timestamp": "2025-12-21T18:54:58.136294+00:00",
        "meta_object_name": "TIANMU-1 17",
        "meta_object_id": "2024-004C",
        "meta_epoch": "2025-12-21T14:48:15.282720",
        "meta_mean_motion": 15.2458527,
        "meta_eccentricity": 0.00035077,
        "meta_inclination": 97.4596,
        "meta_ra_of_asc_node": 176.8491,
        "meta_arg_of_pericenter": 257.1521,
        "meta_mean_anomaly": 102.9325,
        "meta_ephemeris_type": 0,
        "meta_classification_type": "U",
        "meta_norad_cat_id": 58702,
        "meta_element_set_no": 999,
        "meta_rev_at_epoch": 10869,
        "meta_bstar": 0.00022096835,
        "meta_mean_motion_dot": 5.374e-05,
        "meta_mean_motion_ddot": 0,
        "tle_line1": "1 58702U 24004C   25355.61684355  .00005374  00000+0  22097-3 0  9991",
        "tle_line2": "2 58702  97.4596 176.8491 0003507 257.1521 102.9325 15.24585270108693"
      },
      "geometry": {
        "type": "Point",
        "coordinates": [
          -9.18039347159245,
          -39.49750685814964
        ]
      }
    },
    {
      "type": "Feature",
      "properties": {
        "norad_id": 58703,
        "name": "TIANMU-1 18",
        "group": "weather",
        "lat": -48.622238427126995,
        "lon": -174.22741081997924,
        "alt_km": 497.90027640756034,
        "timestamp": "2025-12-21T18:54:58.136314+00:00",
        "meta_object_name": "TIANMU-1 18",
        "meta_object_id": "2024-004D",
        "meta_epoch": "2025-12-21T14:24:20.953728",
        "meta_mean_motion": 15.24569745,
        "meta_eccentricity": 0.00028631,
        "meta_inclination": 97.4613,
        "meta_ra_of_asc_node": 177.0297,
        "meta_arg_of_pericenter": 254.8514,
        "meta_mean_anomaly": 105.2406,
        "meta_ephemeris_type": 0,
        "meta_classification_type": "U",
        "meta_norad_cat_id": 58703,
        "meta_element_set_no": 999,
        "meta_rev_at_epoch": 10869,
        "meta_bstar": 0.00022176639,
        "meta_mean_motion_dot": 5.391e-05,
        "meta_mean_motion_ddot": 0,
        "tle_line1": "1 58703U 24004D   25355.60024252  .00005391  00000+0  22177-3 0  9993",
        "tle_line2": "2 58703  97.4613 177.0297 0002863 254.8514 105.2406 15.24569745108696"
      },
      "geometry": {
        "type": "Point",
        "coordinates": [
          -174.22741081997924,
          -48.622238427126995
        ]
      }
    },
    {
      "type": "Feature",
      "properties": {
        "norad_id": 58990,
        "name": "INSAT-3DS",
        "group": "weather",
        "lat": 0.020383960250786214,
        "lon": 96.44335447388855,
        "alt_km": 35790.70548460278,
        "timestamp": "2025-12-21T18:54:58.136333+00:00",
        "meta_object_name": "INSAT-3DS",
        "meta_object_id": "2024-033A",
        "meta_epoch": "2025-12-21T13:35:15.512928",
        "meta_mean_motion": 1.00272039,
        "meta_eccentricity": 0.00011078,
        "meta_inclination": 0.0547,
        "meta_ra_of_asc_node": 102.593,
        "meta_arg_of_pericenter": 170.8885,
        "meta_mean_anomaly": 102.8239,
        "meta_ephemeris_type": 0,
        "meta_classification_type": "U",
        "meta_norad_cat_id": 58990,
        "meta_element_set_no": 999,
        "meta_rev_at_epoch": 4528,
        "meta_bstar": 0,
        "meta_mean_motion_dot": -1.34e-06,
        "meta_mean_motion_ddot": 0,
        "tle_line1": "1 58990U 24033A   25355.56615177 -.00000134  00000+0  00000+0 0  9998",
        "tle_line2": "2 58990   0.0547 102.5930 0001107 170.8885 102.8239  1.00272039 45283"
      },
      "geometry": {
        "type": "Point",
        "coordinates": [
          96.44335447388855,
          0.020383960250786214
        ]
      }
    },
    {
      "type": "Feature",
      "properties": {
        "norad_id": 59051,
        "name": "METEOR-M2 4",
        "group": "weather",
        "lat": 44.07125684335157,
        "lon": -55.94683061127474,
        "alt_km": 812.095179288388,
        "timestamp": "2025-12-21T18:54:58.136397+00:00",
        "meta_object_name": "METEOR-M2 4",
        "meta_object_id": "2024-039A",
        "meta_epoch": "2025-12-21T13:38:31.494912",
        "meta_mean_motion": 14.22402531,
        "meta_eccentricity": 0.00065775,
        "meta_inclination": 98.6779,
        "meta_ra_of_asc_node": 312.3393,
        "meta_arg_of_pericenter": 332.3591,
        "meta_mean_anomaly": 27.7236,
        "meta_ephemeris_type": 0,
        "meta_classification_type": "U",
        "meta_norad_cat_id": 59051,
        "meta_element_set_no": 999,
        "meta_rev_at_epoch": 9401,
        "meta_bstar": 2.4280133e-05,
        "meta_mean_motion_dot": 1e-07,
        "meta_mean_motion_ddot": 0,
        "tle_line1": "1 59051U 24039A   25355.56842008  .00000010  00000+0  24280-4 0  9991",
        "tle_line2": "2 59051  98.6779 312.3393 0006577 332.3591  27.7236 14.22402531 94018"
      },
      "geometry": {
        "type": "Point",
        "coordinates": [
          -55.94683061127474,
          44.07125684335157
        ]
      }
    },
    {
      "type": "Feature",
      "properties": {
        "norad_id": 60133,
        "name": "GOES 19",
        "group": "weather",
        "lat": -0.016194299061845985,
        "lon": -60.8593017418192,
        "alt_km": 35784.20170368342,
        "timestamp": "2025-12-21T18:54:58.136422+00:00",
        "meta_object_name": "GOES 19",
        "meta_object_id": "2024-119A",
        "meta_epoch": "2025-12-21T12:50:27.303072",
        "meta_mean_motion": 1.00268483,
        "meta_eccentricity": 7.217e-05,
        "meta_inclination": 0.0068,
        "meta_ra_of_asc_node": 72.9985,
        "meta_arg_of_pericenter": 247.5126,
        "meta_mean_anomaly": 247.2657,
        "meta_ephemeris_type": 0,
        "meta_classification_type": "U",
        "meta_norad_cat_id": 60133,
        "meta_element_set_no": 999,
        "meta_rev_at_epoch": 518,
        "meta_bstar": 0,
        "meta_mean_motion_dot": -2.26e-06,
        "meta_mean_motion_ddot": 0,
        "tle_line1": "1 60133U 24119A   25355.53503823 -.00000226  00000+0  00000+0 0  9998",
        "tle_line2": "2 60133   0.0068  72.9985 0000721 247.5126 247.2657  1.00268483  5185"
      },
      "geometry": {
        "type": "Point",
        "coordinates": [
          -60.8593017418192,
          -0.016194299061845985
        ]
      }
    },
    {
      "type": "Feature",
      "properties": {
        "norad_id": 65815,
        "name": "FENGYUN 3H",
        "group": "weather",
        "lat": -22.263869017711862,
        "lon": 111.60537797746544,
        "alt_km": 831.0476560948237,
        "timestamp": "2025-12-21T18:54:58.136440+00:00",
        "meta_object_name": "FENGYUN 3H",
        "meta_object_id": "2025-219A",
        "meta_epoch": "2025-12-21T12:53:32.012448",
        "meta_mean_motion": 14.19906846,
        "meta_eccentricity": 7.531e-05,
        "meta_inclination": 98.6597,
        "meta_ra_of_asc_node": 294.9369,
        "meta_arg_of_pericenter": 106.0358,
        "meta_mean_anomaly": 254.0901,
        "meta_ephemeris_type": 0,
        "meta_classification_type": "U",
        "meta_norad_cat_id": 65815,
        "meta_element_set_no": 999,
        "meta_rev_at_epoch": 1217,
        "meta_bstar": 4.6386634e-05,
        "meta_mean_motion_dot": 5.5e-07,
        "meta_mean_motion_ddot": 0,
        "tle_line1": "1 65815U 25219A   25355.53717607  .00000055  00000+0  46387-4 0  9991",
        "tle_line2": "2 65815  98.6597 294.9369 0000753 106.0358 254.0901 14.19906846 12171"
      },
      "geometry": {
        "type": "Point",
        "coordinates": [
          111.60537797746544,
          -22.263869017711862
        ]
      }
    }
  ]
}